OBJECT_NAME,OBJECT_ID,EPOCH,MEAN_MOTION,ECCENTRICITY,INCLINATION,RA_OF_ASC_NODE,ARG_OF_PERICENTER,MEAN_ANOMALY,EPHEMERIS_TYPE,CLASSIFICATION_TYPE,NORAD_CAT_ID,ELEMENT_SET_NO,REV_AT_EPOCH,BSTAR,MEAN_MOTION_DOT,MEAN_MOTION_DDOT
SUOMI NPP,2011-061A,2026-06-04T17:21:52.756128,14.19514710,.0002187,98.7951,96.6850,33.5911,326.5403,0,U,37849,999,75667,.69015E-4,.101E-5,0
YAOGAN-12,2011-066B,2026-06-04T21:02:26.225088,15.26438309,.0007984,97.1146,195.0241,269.6143,90.4181,0,U,37875,999,81016,.28195E-3,.7284E-4,0
BEIDOU-2 M4,2012-018B,2026-06-04T05:36:54.798048,1.86229800,.0011084,55.6701,304.5261,278.0259,81.8322,0,U,38251,999,9570,0,-.59E-6,0
ARIRANG-3 (KOMPSAT-3),2012-025B,2026-06-04T20:26:54.374208,14.62195220,.0006082,98.1171,113.5254,141.4046,218.7592,0,U,38338,999,74954,.11909E-3,.553E-5,0
METOP-B,2012-049A,2026-06-04T15:50:20.133600,14.21429320,.0002917,98.6509,207.4085,47.9914,312.1512,0,U,38771,999,71148,.83903E-4,.14E-5,0
SJ-9A,2012-056A,2026-06-04T16:51:59.829120,14.85448284,.0024187,97.6702,128.1067,300.5026,59.3802,0,U,38860,999,69773,.15024E-3,.1249E-4,0
COSMOS 2484 (RODNIK-S 6),2013-001C,2026-06-04T19:56:00.449664,12.42938638,.0027281,82.5024,229.5740,62.8631,297.5226,0,U,39059,999,60702,.14968E-3,.31E-6,0
SARAL,2013-009A,2026-06-04T18:01:00.441120,14.32852873,.0001416,98.5557,342.4756,2.9845,357.1348,0,U,39086,999,69382,.4766E-4,.86E-6,0
STRAND-1,2013-009E,2026-06-04T00:52:51.152160,14.37155097,.00073872,98.3918,335.5952,270.6143,89.4198,0,U,39090,999,69517,.11291857E-3,.293E-5,0
BRITE-AUSTRIA,2013-009F,2026-06-04T17:46:13.291104,14.36537037,.0008969,98.3992,335.4846,278.5862,81.4309,0,U,39091,999,69526,.8409E-4,.204E-5,0
GAOFEN-1,2013-018A,2026-06-04T20:45:24.624576,14.76521802,.0016093,97.9095,228.1825,309.8191,50.1602,0,U,39150,999,70642,-.44377E-5,-.82E-6,0
NEE-01 PEGASO,2013-018B,2026-06-03T11:09:53.669664,14.93586684,.00121772,98.1207,298.1637,203.9081,156.1574,0,U,39151,999,70865,.30779545E-3,.319E-4,0
PROBA-V,2013-021A,2026-06-04T11:13:45.340032,14.23594218,.0004546,98.3578,134.7029,154.6484,205.4920,0,U,39159,999,67930,.56508E-4,.88E-6,0
ARIRANG-5 (KOMPSAT-5),2013-042A,2026-06-04T19:05:28.689216,15.04544493,.0003773,97.6201,342.6696,155.8482,204.2922,0,U,39227,999,70199,.19184E-3,.2628E-4,0
GONETS-M 5,2013-048A,2026-06-04T21:06:19.592352,12.42891509,.0015692,82.4829,351.0571,238.9080,121.0461,0,U,39249,999,57735,.55845E-4,.18E-6,0
GONETS-M 7,2013-048C,2026-06-04T20:13:18.563808,12.42914326,.0016494,82.4897,353.9960,240.3018,119.6421,0,U,39251,999,57730,.63012E-4,.19E-6,0
FENGYUN 3C,2013-052A,2026-06-04T19:36:53.506080,14.15752159,.001576,98.4980,130.2606,61.1665,299.1090,0,U,39260,999,65681,.82002E-4,.12E-5,0
CASSIOPE,2013-055A,2026-06-04T16:37:00.139872,15.24063848,.0296901,80.9144,81.8797,104.3072,259.1320,0,U,39265,999,66576,.44891E-3,.4054E-3,-.59447E-6
APRIZESAT 7,2013-066A,2026-06-03T11:14:31.928640,14.91532678,.00342772,97.7702,107.8862,256.3956,103.3444,0,U,39416,999,67918,.14142157E-3,.1374E-4,0
ZACUBE-1 (TSHEPISOSAT),2013-066B,2026-06-03T22:37:15.794688,15.01095965,.00399036,97.8107,117.2078,294.5657,65.1411,0,U,39417,999,67874,.35148087E-3,.451E-4,0
APRIZESAT 8,2013-066K,2026-06-04T02:13:28.245792,14.87624717,.0045204,97.8216,102.7439,330.7670,29.1018,0,U,39425,999,67772,.14319275E-3,.1269E-4,0
